NORAD_CAT_ID,OBJECT_NAME,OBJECT_TYPE,EPOCH,MEAN_MOTION,ECCENTRICITY,INCLINATION,RA_OF_ASC_NODE,ARG_OF_PERICENTER,MEAN_ANOMALY,BSTAR,MEAN_MOTION_DOT,MEAN_MOTION_DDOT,TLE_LINE0,TLE_LINE1,TLE_LINE2,SEMIMAJOR_AXIS,PERIOD,APOGEE,PERIGEE,DECAYED
52458.0,STARLINK-3898,PAYLOAD,2022-08-04 14:00:01,15.08859723,0.0002363,53.2158,203.8694,50.5549,143.655,-0.0018797,-0.00030097,0.0,0 STARLINK-3898,1 52458U 22049H   22216.58334491 -.00030097  00000-0 -18797-2 0  9996,2 52458  53.2158 203.8694 0002363  50.5549 143.6550 15.08859723  1300,6917.82,95.436,541.32,538.05,0.0
52458.0,STARLINK-3898,PAYLOAD,2022-08-04 22:00:00,15.08835217,0.0002276999999999,53.2158,202.3719,55.9476,149.8692,0.0016952,0.00026791,0.0,0 STARLINK-3898,1 52458U 22049H   22216.91667824  .00026791  00000-0  16952-2 0  9997,2 52458  53.2158 202.3719 0002277  55.9476 149.8692 15.08835217  1301,6917.895,95.438,541.335,538.185,0.0
52458.0,STARLINK-3898,PAYLOAD,2022-08-05 06:00:02,15.08846624,0.0002463,53.2157,200.8773,52.1262,165.3576,-0.00042968,-7.122e-05,0.0,0 STARLINK-3898,1 52458U 22049H   22217.25002315 -.00007122  00000-0 -42968-3 0  9999,2 52458  53.2157 200.8773 0002463  52.1262 165.3576 15.08846624 14146,6917.86,95.437,541.429,538.021,0.0
52458.0,STARLINK-3898,PAYLOAD,2022-08-05 14:00:01,15.08867223,0.0002426,53.2155,199.3802,51.89,177.1915,-0.0021212,-0.00033916,0.0,0 STARLINK-3898,1 52458U 22049H   22217.58335648 -.00033916  00000-0 -21212-2 0  9991,2 52458  53.2155 199.3802 0002426  51.8900 177.1915 15.08867223  1303,6917.797,95.436,541.34,537.984,0.0
52458.0,STARLINK-3898,PAYLOAD,2022-08-05 22:00:00,15.08844786,0.0002376999999999,53.2156,197.8827,57.0814,183.5526,0.0016954,0.00026801,0.0,0 STARLINK-3898,1 52458U 22049H   22217.91667824  .00026801  00000-0  16954-2 0  9992,2 52458  53.2156 197.8827 0002377  57.0814 183.5526 15.08844786  1309,6917.866,95.437,541.375,538.086,0.0
52458.0,STARLINK-3898,PAYLOAD,2022-08-06 06:00:00,15.0885565,0.0002552999999999,53.2155,196.3882,52.9686,199.2797,-0.00049134,-8.103e-05,0.0,0 STARLINK-3898,1 52458U 22049H   22218.25001157 -.00008103  00000-0 -49134-3 0  9995,2 52458  53.2155 196.3882 0002553  52.9686 199.2797 15.08855650 14298,6917.833000000001,95.437,541.464,537.931,0.0
52458.0,STARLINK-3898,PAYLOAD,2022-08-06 14:00:01,15.08870239,0.000245,53.2155,194.891,51.9795,211.878,-0.0041465,-0.00065736,0.0,0 STARLINK-3898,1 52458U 22049H   22218.58334491 -.00065736  00000-0 -41465-2 0  9994,2 52458  53.2155 194.8910 0002450  51.9795 211.8780 15.08870239  1300,6917.788000000001,95.436,541.3480000000002,537.9580000000002,0.0
52458.0,STARLINK-3898,PAYLOAD,2022-08-06 22:00:00,15.08829747,0.0002387999999999,53.2156,193.3935,56.6933,218.7689,0.0016228999999999,0.00025628,0.0,0 STARLINK-3898,1 52458U 22049H   22218.91667824  .00025628  00000-0  16229-2 0  9994,2 52458  53.2156 193.3935 0002388  56.6933 218.7689 15.08829747  1300,6917.9119999999975,95.438,541.429,538.125,0.0
52458.0,STARLINK-3898,PAYLOAD,2022-08-07 14:00:01,15.08861101,0.0002517,53.2157,190.4017,53.1547,245.4905,-0.0022597,-0.00036094,0.0,0 STARLINK-3898,1 52458U 22049H   22219.58334491 -.00036094  00000-0 -22597-2 0  9995,2 52458  53.2157 190.4017 0002517  53.1547 245.4905 15.08861101  1305,6917.816,95.436,541.422,537.94,0.0
52458.0,STARLINK-3898,PAYLOAD,2022-08-07 22:00:00,15.08846867,0.0002463,53.216,188.9043,58.0688,252.18400000000003,0.0013751,0.00021669,0.0,0 STARLINK-3898,1 52458U 22049H   22219.91667824  .00021669  00000-0  13751-2 0  9993,2 52458  53.2160 188.9043 0002463  58.0688 252.1840 15.08846867  1305,6917.859,95.437,541.428,538.021,0.0
52458.0,STARLINK-3898,PAYLOAD,2022-08-08 06:00:00,15.08853382,0.0002601,53.216,187.4097,53.4258,268.4466,-0.0015930999999999,-0.00025564,0.0,0 STARLINK-3898,1 52458U 22049H   22220.25001157 -.00025564  00000-0 -15931-2 0  9995,2 52458  53.2160 187.4097 0002601  53.4258 268.4466 15.08853382 14593,6917.839,95.437,541.504,537.905,0.0
52458.0,STARLINK-3898,PAYLOAD,2022-08-08 14:00:01,15.08856838,0.0002465,53.216,185.9123,53.8582,279.6782,-0.0017666,-0.00028308,0.0,0 STARLINK-3898,1 52458U 22049H   22220.58335648 -.00028308  00000-0 -17666-2 0  9992,2 52458  53.2160 185.9123 0002465  53.8582 279.6782 15.08856838  1307,6917.829000000002,95.436,541.399,537.989,0.0
52458.0,STARLINK-3898,PAYLOAD,2022-08-08 22:00:00,15.08860236,0.0002363,53.2163,184.4152,58.1633,286.9114,-0.0010429999999999,-0.00016859,0.0,0 STARLINK-3898,1 52458U 22049H   22220.91667824 -.00016859  00000-0 -10430-2 0  9993,2 52458  53.2163 184.4152 0002363  58.1633 286.9114 15.08860236 14691,6917.819,95.436,541.318,538.049,0.0
52458.0,STARLINK-3898,PAYLOAD,2022-08-09 14:00:01,15.08850045,0.0002320999999999,53.2162,181.4231,53.7397,314.5312,-0.0041166,-0.00065232,0.0,0 STARLINK-3898,1 52458U 22049H   22221.58334491 -.00065232  00000-0 -41166-2 0  9997,2 52458  53.2162 181.4231 0002321  53.7397 314.5312 15.08850045  1306,6917.85,95.437,541.32,538.109,0.0
52458.0,STARLINK-3898,PAYLOAD,2022-08-09 22:00:00,15.08818453,0.0002222,53.2166,179.9263,57.5626,322.2846,0.00083665,0.00013045,0.0,0 STARLINK-3898,1 52458U 22049H   22221.91667824  .00013045  00000-0  83665-3 0  9997,2 52458  53.2166 179.9263 0002222  57.5626 322.2846 15.08818453  1309,6917.946,95.439,541.3480000000002,538.274,0.0
52458.0,STARLINK-3898,PAYLOAD,2022-08-10 06:00:00,15.08810421,0.0002389,53.2166,178.4317,53.1889,338.2366,0.0015083,0.00023779,0.0,0 STARLINK-3898,1 52458U 22049H   22222.25001157  .00023779  00000-0  15083-2 0  9999,2 52458  53.2166 178.4317 0002389  53.1889 338.2366 15.08810421 14899,6917.971,95.439,541.489,538.183,0.0
52458.0,STARLINK-3898,PAYLOAD,2022-08-10 14:00:01,15.08837112,0.0002278999999999,53.2164,176.9341,55.8035,347.1921,-0.0012349,-0.00019887,0.0,0 STARLINK-3898,1 52458U 22049H   22222.58334491 -.00019887  00000-0 -12349-2 0  9994,2 52458  53.2164 176.9341 0002279  55.8035 347.1921 15.08837112  1301,6917.889,95.438,541.331,538.178,0.0
52458.0,STARLINK-3898,PAYLOAD,2022-08-10 22:00:00,15.08837794,0.0002392,53.2173,175.4444,51.5452,3.0073,-5.2212e-05,-1.119e-05,0.0,0 STARLINK-3898,1 52458U 22049H   22222.91667824 -.00001119  00000-0 -52212-4 0  9994,2 52458  53.2173 175.4444 0002392  51.5452   3.0073 15.08837794  1303,6917.887,95.438,541.4069999999998,538.097,0.0
52458.0,STARLINK-3898,PAYLOAD,2022-08-11 14:00:01,15.0884481,0.0002078,53.2165,172.4454,54.7089,22.9578,-0.00076126,-0.00012385,0.0,0 STARLINK-3898,1 52458U 22049H   22223.58334491 -.00012385  00000-0 -76126-3 0  9995,2 52458  53.2165 172.4454 0002078  54.7089  22.9578 15.08844810  1301,6917.866,95.437,541.168,538.293,0.0
52458.0,STARLINK-3898,PAYLOAD,2022-08-11 22:00:00,15.08854876,0.0002083,53.2167,170.949,58.2858,30.9718,-0.00026581,-4.518e-05,0.0,0 STARLINK-3898,1 52458U 22049H   22223.91667824 -.00004518  00000-0 -26581-3 0  9990,2 52458  53.2167 170.9490 0002083  58.2858  30.9718 15.08854876 15140,6917.835,95.437,541.141,538.259,0.0
52458.0,STARLINK-3898,PAYLOAD,2022-08-12 14:00:01,15.088722199999998,0.0002085999999999,53.2166,167.9564,56.448,56.0421,-0.0010278,-0.00016623,0.0,0 STARLINK-3898,1 52458U 22049H   22224.58334491 -.00016623  00000-0 -10278-2 0  9990,2 52458  53.2166 167.9564 0002086  56.4480  56.0421 15.08872220  1307,6917.781999999997,95.436,541.09,538.2040000000002,0.0
52458.0,STARLINK-3898,PAYLOAD,2022-08-12 20:00:01,15.08863744,0.0002051,53.2167,166.8337,59.1643,332.1066,-0.00085084,-0.00013813,0.0,0 STARLINK-3898,1 52458U 22049H   22224.83335648 -.00013813  00000-0 -85084-3 0  9999,2 52458  53.2167 166.8337 0002051  59.1643 332.1066 15.08863744 15283,6917.808000000001,95.436,541.092,538.254,0.0
52458.0,STARLINK-3898,PAYLOAD,2022-08-12 22:00:01,15.08866178,0.0002059,53.2168,166.46,58.4037,65.7718,-0.0016192,-0.00025984,0.0,0 STARLINK-3898,1 52458U 22049H   22224.91668981 -.00025984  00000-0 -16192-2 0  9992,2 52458  53.2168 166.4600 0002059  58.4037  65.7718 15.08866178  1305,6917.8,95.436,541.09,538.241,0.0
52458.0,STARLINK-3898,PAYLOAD,2022-08-13 14:00:01,15.08823071,0.0001979,53.2169,163.4674,54.0094,93.3094,0.000221,3.229e-05,0.0,0 STARLINK-3898,1 52458U 22049H   22225.58334491  .00003229  00000-0  22100-3 0  9995,2 52458  53.2169 163.4674 0001979  54.0094  93.3094 15.08823071  1308,6917.932,95.439,541.1659999999998,538.428,0.0
52458.0,STARLINK-3898,PAYLOAD,2022-08-13 22:00:00,15.08844946,0.0002051,53.217,161.9712,56.9803,101.91,-0.00075807,-0.00012335,0.0,0 STARLINK-3898,1 52458U 22049H   22225.91667824 -.00012335  00000-0 -75807-3 0  9993,2 52458  53.2170 161.9712 0002051  56.9803 101.9100 15.08844946  1305,6917.865,95.437,541.149,538.311,0.0
52458.0,STARLINK-3898,PAYLOAD,2022-08-14 14:00:01,15.08856445,0.0002021999999999,53.2171,158.9784,54.8441,127.2498,-0.0012014,-0.00019367,0.0,0 STARLINK-3898,1 52458U 22049H   22226.58334491 -.00019367  00000-0 -12014-2 0  9990,2 52458  53.2171 158.9784 0002022  54.8441 127.2498 15.08856445 15554,6917.83,95.437,541.094,538.2959999999998,0.0
52458.0,STARLINK-3898,PAYLOAD,2022-08-14 22:00:00,15.08848052,0.0002044,53.2173,157.4823,56.1212,137.5792,-0.00087231,-0.00014148,0.0,0 STARLINK-3898,1 52458U 22049H   22226.91667824 -.00014148  00000-0 -87231-3 0  9992,2 52458  53.2173 157.4823 0002044  56.1212 137.5792 15.08848052  1303,6917.856,95.437,541.135,538.307,0.0
52458.0,STARLINK-3898,PAYLOAD,2022-08-15 14:00:01,15.08815724,0.0001939,53.2174,154.4893,53.2169,163.6769,0.00086642,0.00013519,0.0,0 STARLINK-3898,1 52458U 22049H   22227.58334491  .00013519  00000-0  86642-3 0  9991,2 52458  53.2174 154.4893 0001939  53.2169 163.6769 15.08815724  1303,6917.955,95.439,541.161,538.4780000000002,0.0
52458.0,STARLINK-3898,PAYLOAD,2022-08-15 16:00:00,15.08797441,0.000193,53.2172,154.115,55.0386,254.7549,0.0034248,0.00054577,0.0,0 STARLINK-3898,1 52458U 22049H   22227.66667824  .00054577  00000-0  34248-2 0  9992,2 52458  53.2172 154.1150 0001930  55.0386 254.7549 15.08797441 15719,6918.01,95.44,541.211,538.54,0.0
